[{"OBJECT_NAME":"STARLINK-31907","OBJECT_ID":"2024-093R","EPOCH":"2026-03-09T10:04:01.089120","MEAN_MOTION":15.2757202,"ECCENTRICITY":7.369e-5,"INCLINATION":42.9953,"RA_OF_ASC_NODE":210.4553,"ARG_OF_PERICENTER":122.8911,"MEAN_ANOMALY":237.2012,"EPHEMERIS_TYPE":0,"CLASSIFICATION_TYPE":"U","NORAD_CAT_ID":59797,"ELEMENT_SET_NO":999,"REV_AT_EPOCH":10265,"BSTAR":-2.519398e-6,"MEAN_MOTION_DOT":-3.31e-6,"MEAN_MOTION_DDOT":0},{"OBJECT_NAME":"KUIPER-00209","OBJECT_ID":"2026-030N","EPOCH":"2026-03-09T14:49:43.575744","MEAN_MOTION":15.3016195,"ECCENTRICITY":0.0012191,"INCLINATION":51.8838,"RA_OF_ASC_NODE":220.0775,"ARG_OF_PERICENTER":59.1967,"MEAN_ANOMALY":301.0215,"EPHEMERIS_TYPE":0,"CLASSIFICATION_TYPE":"U","NORAD_CAT_ID":67776,"ELEMENT_SET_NO":999,"REV_AT_EPOCH":507,"BSTAR":0.0011963,"MEAN_MOTION_DOT":0.00035298,"MEAN_MOTION_DDOT":0}]
