STARLINK-31907          
1 59797U 24093R   26068.41945705 -.00000331  00000+0 -25194-5 0  9996
2 59797  42.9953 210.4553 0000736 122.8911 237.2012 15.27572020102653
KUIPER-00209            
1 67776U 26030N   26068.61786546  .00035298  00000+0  11963-2 0  9997
2 67776  51.8838 220.0775 0012191  59.1967 301.0215 15.30161950  5077
